<?xml version="1.0" encoding="UTF-8"?>
<kml xmlns="http://www.opengis.net/kml/2.2" xmlns:gx="http://www.google.com/kml/ext/2.2">
    <Document id="29">
        <Style id="32">
            <LineStyle id="33">
                <color>641400F0</color>
                <colorMode>normal</colorMode>
            </LineStyle>
            <PolyStyle id="34">
                <color>641400F0</color>
                <colorMode>normal</colorMode>
                <fill>1</fill>
                <outline>1</outline>
            </PolyStyle>
        </Style>
        <open>1</open>
        <Placemark id="31">
            <name>Rocket Trajectory - Powered by RocketPy</name>
            <styleUrl>#32</styleUrl>
            <LineString id="30">
                <extrude>1</extrude>
                <altitudeMode>relativeToGround</altitudeMode>
                <coordinates>-106.974998,32.990254,0.0 -106.974998,32.990254,0.0 -106.974998,32.990254,0.0 -106.974998,32.990254,-8.271806125530277e-25 -106.974998,32.990254,0.0 -106.97499799999986,32.99025400000143,1.8195592019765172e-06 -106.97499799999893,32.9902540000102,1.3007454299440724e-05 -106.97499799999615,32.99025400003693,4.711358360509621e-05 -106.97499799996324,32.99025400035253,0.0004498267820736146 -106.97499799987368,32.990254001211014,0.001545227658539261 -106.97499799985943,32.99025400134776,0.0017197172383021098 -106.97499799984415,32.99025400149424,0.001906629172481189 -106.97499799982785,32.99025400165047,0.0021059719626919104 -106.97499799979221,32.99025400199218,0.0025419883870654303 -106.97499799975249,32.99025400237293,0.0030278303224804404 -106.97499799970869,32.99025400279279,0.0035635658563251127 -106.97499799904475,32.99025400915818,0.011685704247497597 -106.97499799796681,32.99025401949248,0.024872131369534145 -106.97499799646934,32.9902540338489,0.04319070653446033 -106.9749979787236,32.99025420397923,0.2602745947509675 -106.97499794509027,32.99025452642554,0.6717115015500212 -106.97499789448901,32.99025501154526,1.290717360976032 -106.9749977018935,32.99025685797893,3.6467404690571357 -106.97499768539353,32.9902570161659,3.84858480130913 -106.97499768154299,32.99025705308335,3.895577949201197 -106.9749976776578,32.99025709033483,3.942884345386233 -106.97499766981808,32.99025716550663,4.038124663078065 -106.97499766183945,32.990257242017684,4.134622064912946 -106.97499765372162,32.99025731987107,4.232380596701091 -106.97499761567785,32.99025768481961,4.685442156904628 -106.97499757481205,32.99025807699027,5.164206260856872 -106.97499753109734,32.99025849665007,5.669025381951769 -106.97499748450635,32.99025894406988,6.200257297261032 -106.97499739726678,32.990259782195025,7.180108002675979 -106.97499730116431,32.99026070591366,8.24244538991411 -106.9749971959599,32.99026171756499,9.390285100323695 -106.974997081417,32.9902628194647,10.626578939292926 -106.97499693836971,32.99026419613572,12.155795788333535 -106.97499678240342,32.990265697745855,13.809102638371087 -106.97499661316891,32.99026732771924,15.590517010071153 -106.97499643031523,32.99026908950187,17.50387815614738 -106.97499619588997,32.99027134903832,19.943142459492037 -106.97499594130355,32.99027380390879,22.57784804140681 -106.97499566594145,32.99027646023968,25.41315433867635 -106.97499562953588,32.99027681152232,25.786974567936568 -106.97499561288568,32.990276972189484,25.957864341509094 -106.97499560222857,32.99027707502818,26.06721717469054 -106.97499559154517,32.99027717812278,26.176816451925333 -106.97499558083803,32.990277281448364,26.286631994531717 -106.97499556294194,32.99027745415357,26.47010915094279 -106.97499554499926,32.99027762731527,26.65396330446265 -106.97499552702209,32.990277800817125,26.83805415416805 -106.97499551549,32.99027791212014,26.956077619352527 -106.97499550395193,32.99027802348415,27.074103656281522 -106.9749954924113,32.99027813487663,27.192093188979698 -106.97499548270434,32.990278228572855,27.291284065720674 -106.97499547299822,32.99027832226364,27.390418491301944 -106.97499546329294,32.990278415949,27.489496468415382 -106.97499544388488,32.99027860330343,27.687483088338695 -106.97499542448016,32.9902787906362,27.88524395066929 -106.97499540507874,32.99027897794735,28.082779078078147 -106.97499538568067,32.99027916523689,28.28008849380126 -106.9749951918812,32.990281036954805,30.240773582033853 -106.974994998407,32.990282906564346,32.178912783293754 -106.9749948052513,32.99028477411768,34.0945287322063 -106.97499461240676,32.990286639672554,35.98764370338358 -106.9749943338642,32.990289336026585,38.68749509863005 -106.97499405593288,32.9902920285266,41.34033405380774 -106.97499377858794,32.990294717381715,43.94622432269375 -106.97499350180445,32.99029740280426,46.505228301437 -106.97499322555772,32.990300085004854,49.01740704683834 -106.97499299060341,32.99030236782911,51.12086470959389 -106.97499275600728,32.99030464858475,53.19041209809325 -106.97499252175588,32.99030692738688,55.22608485064461 -106.97499228783659,32.99030920434332,57.227917999678766 -106.97499205423759,32.99031147955374,59.195945989932625 -106.97499162842601,32.99031563037432,62.702868536232245 -106.97499120358869,32.99031977614521,66.09736245975455 -106.97499077967764,32.99032391723921,69.37962340312356 -106.97499035665416,32.99032805392986,72.54984123565077 -106.97498993448853,32.990332186397396,75.60820018150775 -106.97498951315934,32.990336314739096,78.55487885785965 -106.97498903706605,32.99034098443602,81.75688560547178 -106.97498856201227,32.990345648818185,84.81616301571194 -106.97498808799062,32.99035030775362,87.73294412319751 -106.97498761499872,32.99035496105419,90.50745240777269 -106.9749871430369,32.990359608494664,93.13990162820983 -106.9749866721067,32.990364249828914,95.63049567092162 -106.97498612154247,32.99036968085876,98.36893590340378 -106.9749855723917,32.99037510281837,100.9131547563145 -106.97498502462132,32.99038051564213,103.26358963567077 -106.97498447819994,32.990385919240026,105.4206138940483 -106.97498393314625,32.990391313011344,107.38426696972942 -106.97498338942258,32.99039669691996,109.15484363421683 -106.9749828470097,32.99040207073838,110.73246358182814 -106.97498230586838,32.99040743443903,112.11728687417963 -106.97498176595072,32.990412788079404,113.30944105634353 -106.9749811495824,32.99041890178545,114.43732964524156 -106.97498053463316,32.99042500296725,115.31324254078913 -106.97497992099065,32.990431092124055,115.93728519110095 -106.97497930856163,32.990437169576744,116.3095416640399 -106.97497871007384,32.99044310844321,116.43015533948505 -106.9749786973352,32.99044323484369,116.43010056196681 -106.97497808750751,32.990449285396444,116.29911350884413 -106.97497790874142,32.990451058821755,116.2128946771902 -106.97497773016657,32.99045283020928,116.10501560985472 -106.97497755181055,32.99045459926786,115.97549048263727 -106.9749773737058,32.99045636565673,115.82433620797656 -106.9749771958895,32.99045812898716,115.65157249984532 -106.97497696748492,32.99046039365331,115.39740341092192 -106.9749767397293,32.99046265146806,115.1075207468673 -106.97497651273596,32.990464901250526,114.78199058752352 -106.97497628663041,32.990467141692505,114.42088953621442 -106.9749760317197,32.990469666812416,113.96893179727181 -106.9749757783387,32.990472175868256,113.47157957854893 -106.97497552671594,32.990474666466945,112.92900102108456 -106.97497527709086,32.990477136093546,112.34138753986485 -106.97497502971072,32.99047958214476,111.7089561143182 -106.97497478482599,32.99048200197415,111.03195116816869 -106.97497454268546,32.990484392943806,110.31064654533793 -106.97497430353043,32.99048675248435,109.54534729241846 -106.97497407533065,32.990489001883496,108.76381410625822 -106.9749738503216,32.99049121761178,107.94179606046555 -106.97497362866457,32.99049339791947,107.07965713498811 -106.97497341048815,32.990495541393884,106.1777892026978 -106.97497319588085,32.99049764704051,105.23660955692571 -106.9749729640703,32.990499918125984,104.15685450025671 -106.97497273660015,32.990502143048346,103.03070362439212 -106.97497251335633,32.99050432293227,101.85877066670878 -106.97497229412531,32.99050645996422,100.64166221796745 -106.97497207858862,32.990508557457495,99.37995738585141 -106.9749718310646,32.99051096214384,97.85127698965289 -106.97497158714206,32.990513328078336,96.26323625708665 -106.97497134580233,32.99051566612565,94.61633736439035 -106.97497110589772,32.99051798861054,92.91082407343583 -106.97497086620686,32.990520308744074,91.14663164316198 -106.97497062550667,32.990522639868395,89.32334999948671 -106.97497038265891,32.99052499454051,87.44020657769897 -106.974970136708,32.9905273834879,85.49607586421439 -106.97496988698445,32.99052981449219,83.48952272231782 -106.97496963320611,32.99053229128654,81.41888602706376 -106.974969424792,32.9905343303252,79.693519997468 -106.97496921419231,32.9905363952619,77.92404683637687 -106.97496900199853,32.990538480161575,76.10966117809608 -106.97496878902737,32.990540576638615,74.24973821009826 -106.97496857628884,32.99054267417294,72.34390872426161 -106.97496836493484,32.990544760633256,70.39212358813052 -106.97496821143955,32.99054627703646,68.93087429998764 -106.97496805983695,32.9905477752483,67.44529743176895 -106.97496791059527,32.990549250210485,65.93575341673954 -106.97496776414944,32.990550697193854,64.402700761598 -106.97496762088832,32.99055211193612,62.84668130699629 -106.974967481145,32.99055349074644,61.268301901754285 -106.97496734519203,32.99055483056432,59.66821311407284 -106.97496721324094,32.990556128971065,58.04708652867657 -106.97496709770905,32.99055726382172,56.56637606461345 -106.9749669856415,32.99055836250069,55.06955009211447 -106.97496687708892,32.99055942434917,53.55705888537955 -106.97496677208133,32.99056044893375,52.02931562758954 -106.97496667063493,32.99056143597275,50.486687968129445 -106.97496655231004,32.99056258318334,48.594904873128826 -106.9749664392597,32.99056367445551,46.682105942227736 -106.97496633150871,32.990564709352796,44.748602403151835 -106.97496622909847,32.9905656872595,42.79456184602236 -106.9749661320888,32.990566607354594,40.82000381705143 -106.97496605043557,32.990567376032544,39.04716117337125 -106.97496597316426,32.9905680974831,37.257810228778 -106.97496590032401,32.990568770995324,35.451671106531876 -106.97496583194727,32.99056939600362,33.628378309186246 -106.97496576803735,32.99056997221493,31.787487506709112 -106.97496570218638,32.99057055563775,29.71983711348662 -106.97496564166777,32.99057107990824,27.629017813822884 -106.97496558623455,32.99057154710327,25.514182849708277 -106.97496553551065,32.990571960603475,23.374458822550764 -106.9749654889761,32.99057232525734,21.208984621327318 -106.97496544595948,32.99057264747309,19.016954895581193 -106.97496540563952,32.990572935218694,16.79766591793191 -106.9749653670575,32.99057319791452,14.5505608154225 -106.97496532914052,32.99057344621252,12.27527024171468 -106.97496529073526,32.99057369166819,9.971644103494896 -106.97496526160535,32.99057387661478,8.2663963249272 -106.97496523110536,32.99057407126083,6.546105737162179 -106.97496519878013,32.990574280278224,4.810955079710993 -106.97496516419484,32.99057450814984,3.0611878311740384 -106.97496512694372,32.99057475908829,1.2970994445112183 -106.9749650978421,32.990574959154024,4.425692168297246e-08</coordinates>
            </LineString>
        </Placemark>
    </Document>
</kml>
